NORAD_CAT_ID,OBJECT_NAME,OBJECT_TYPE,EPOCH,MEAN_MOTION,ECCENTRICITY,INCLINATION,RA_OF_ASC_NODE,ARG_OF_PERICENTER,MEAN_ANOMALY,BSTAR,MEAN_MOTION_DOT,MEAN_MOTION_DDOT,TLE_LINE0,TLE_LINE1,TLE_LINE2,SEMIMAJOR_AXIS,PERIOD,APOGEE,PERIGEE,DECAYED
53623.0,STARLINK-4573,PAYLOAD,2023-10-05 10:38:13,15.08866847,0.000151,53.216,252.5123,98.4741,261.6422,0.00097339,0.00015249,0.0,0 STARLINK-4573,1 53623U 22104AM  23278.44320748  .00015249  00000-0  97339-3 0  9997,2 53623  53.2160 252.5123 0001510  98.4741 261.6422 15.08866847 61955,6917.798,95.436,540.708,538.619,0.0
53623.0,STARLINK-4573,PAYLOAD,2023-10-05 15:24:23,15.08842724,0.0002102,53.2163,251.6203,86.1626,273.9606,0.00010383,1.365e-05,0.0,0 STARLINK-4573,1 53623U 22104AM  23278.64193438  .00001365  00000-0  10383-3 0  9991,2 53623  53.2163 251.6203 0002102  86.1626 273.9606 15.08842724 61308,6917.872,95.437,541.191,538.283,0.0
53623.0,STARLINK-4573,PAYLOAD,2023-10-06 07:18:14,15.08849352,0.0001617,53.2161,248.6443,89.259,270.8588,0.00030242,4.529e-05,0.0,0 STARLINK-4573,1 53623U 22104AM  23279.30432999  .00004529  00000-0  30242-3 0  9994,2 53623  53.2161 248.6443 0001617  89.2590 270.8588 15.08849352 62087,6917.852,95.437,540.835,538.598,0.0
53623.0,STARLINK-4573,PAYLOAD,2023-10-06 15:15:10,15.0883766,0.0001987,53.2165,247.1595,84.7525,275.3694,9.0526e-05,1.153e-05,0.0,0 STARLINK-4573,1 53623U 22104AM  23279.63553650  .00001153  00000-0  90526-4 0  9990,2 53623  53.2165 247.1595 0001987  84.7525 275.3694 15.08837660 61458,6917.888,95.438,541.127,538.378,0.0
53623.0,STARLINK-4573,PAYLOAD,2023-10-07 05:33:38,15.08837909,0.0001733,53.2151,244.4839,80.92,279.1989,0.00044521,6.804e-05,0.0,0 STARLINK-4573,1 53623U 22104AM  23280.23169939  .00006804  00000-0  44521-3 0  9992,2 53623  53.2151 244.4839 0001733  80.9200 279.1989 15.08837909 62222,6917.887,95.438,540.951,538.553,0.0
53623.0,STARLINK-4573,PAYLOAD,2023-10-07 15:05:57,15.08842626,0.0001696,53.2149,242.7007,80.32,279.7984,0.00081842,0.00012762,0.0,0 STARLINK-4573,1 53623U 22104AM  23280.62914092  .00012762  00000-0  81842-3 0  9990,2 53623  53.2149 242.7007 0001696  80.3200 279.7984 15.08842626 62288,6917.872,95.437,540.911,538.564,0.0
53623.0,STARLINK-4573,PAYLOAD,2023-10-08 03:49:02,15.08853662,0.0001582,53.2145,240.3189,101.3333,258.7837,0.00080524,0.00012555,0.0,0 STARLINK-4573,1 53623U 22104AM  23281.15905772  .00012555  00000-0  80524-3 0  9990,2 53623  53.2145 240.3189 0001582 101.3333 258.7837 15.08853662 61683,6917.839,95.437,540.798,538.609,0.0
53623.0,STARLINK-4573,PAYLOAD,2023-10-08 14:56:44,15.08848963,0.000157,53.216,238.2385,99.6345,260.4824,0.00061154,9.46e-05,0.0,0 STARLINK-4573,1 53623U 22104AM  23281.62273834  .00009460  00000-0  61154-3 0  9998,2 53623  53.2160 238.2385 0001570  99.6345 260.4824 15.08848963 61755,6917.853,95.437,540.804,538.632,0.0
53623.0,STARLINK-4573,PAYLOAD,2023-10-08 21:18:16,15.08852772,0.0001619,53.2151,237.0503,90.2983,269.8195,0.00058354,9.014e-05,0.0,0 STARLINK-4573,1 53623U 22104AM  23281.88769654  .00009014  00000-0  58354-3 0  9999,2 53623  53.2151 237.0503 0001619  90.2983 269.8195 15.08852772 62470,6917.841,95.437,540.826,538.586,0.0
53623.0,STARLINK-4573,PAYLOAD,2023-10-09 06:50:35,15.08863764,0.0001461,53.2156,235.2639,110.4981,249.6168,0.00075771,0.00011799,0.0,0 STARLINK-4573,1 53623U 22104AM  23282.28513029  .00011799  00000-0  75771-3 0  9992,2 53623  53.2156 235.2639 0001461 110.4981 249.6168 15.08863764 62539,6917.808,95.436,540.683,538.662,0.0
53623.0,STARLINK-4573,PAYLOAD,2023-10-10 01:55:13,15.08843049,0.0001339,53.2161,231.6962,109.6203,250.4933,0.00037695,5.717e-05,0.0,0 STARLINK-4573,1 53623U 22104AM  23283.08001606  .00005717  00000-0  37695-3 0  9990,2 53623  53.2161 231.6962 0001339 109.6203 250.4933 15.08843049 61976,6917.871,95.437,540.662,538.81,0.0
53623.0,STARLINK-4573,PAYLOAD,2023-10-10 13:02:56,15.08827096,0.000202,53.2157,229.6128,84.2224,275.8998,0.00032685,4.916e-05,0.0,0 STARLINK-4573,1 53623U 22104AM  23283.54370423  .00004916  00000-0  32685-3 0  9991,2 53623  53.2157 229.6128 0002020  84.2224 275.8998 15.08827096 62721,6917.92,95.438,541.182,538.387,0.0
53623.0,STARLINK-4573,PAYLOAD,2023-10-10 20:59:51,15.08822798,0.0001474,53.2166,228.1269,117.9263,242.1878,0.00038097,5.778e-05,0.0,0 STARLINK-4573,1 53623U 22104AM  23283.87490285  .00005778  00000-0  38097-3 0  9996,2 53623  53.2166 228.1269 0001474 117.9263 242.1878 15.08822798 62773,6917.933,95.439,540.818,538.778,0.0
53623.0,STARLINK-4573,PAYLOAD,2023-10-11 03:21:24,15.08846261,0.0001429,53.2165,226.9408,114.6861,245.428,0.0018461,0.0002922,0.0,0 STARLINK-4573,1 53623U 22104AM  23284.13986379  .00029220  00000-0  18461-2 0  9990,2 53623  53.2165 226.9408 0001429 114.6861 245.4280 15.08846261 62135,6917.861,95.437,540.715,538.738,0.0
53623.0,STARLINK-4573,PAYLOAD,2023-10-11 06:32:10,15.08858544,0.0001308,53.217,226.3463,110.0647,250.0486,0.0018649,0.00029532,0.0,0 STARLINK-4573,1 53623U 22104AM  23284.27234160  .00029532  00000-0  18649-2 0  9993,2 53623  53.2170 226.3463 0001308 110.0647 250.0486 15.08858544 62838,6917.824,95.436,540.594,538.784,0.0
53623.0,STARLINK-4573,PAYLOAD,2023-10-12 04:47:34,15.08853795,0.0001344,53.217,222.182,99.9323,260.182,0.0015323,0.00024192,0.0,0 STARLINK-4573,1 53623U 22104AM  23285.19970657  .00024192  00000-0  15323-2 0  9996,2 53623  53.2170 222.1820 0001344  99.9323 260.1820 15.08853795 62292,6917.838,95.437,540.633,538.773,0.0
53623.0,STARLINK-4573,PAYLOAD,2023-10-12 12:44:30,15.08844876,0.0001349,53.2174,220.6945,88.2427,271.872,0.0010533,0.00016517,0.0,0 STARLINK-4573,1 53623U 22104AM  23285.53090662  .00016517  00000-0  10533-2 0  9993,2 53623  53.2174 220.6945 0001349  88.2427 271.8720 15.08844876 63028,6917.865,95.437,540.664,538.797,0.0
53623.0,STARLINK-4573,PAYLOAD,2023-10-13 04:38:21,15.088549,0.0001638,53.2171,217.7222,89.119,270.999,0.00078009,0.00012154,0.0,0 STARLINK-4573,1 53623U 22104AM  23286.19330607  .00012154  00000-0  78009-3 0  9998,2 53623  53.2171 217.7222 0001638  89.1190 270.9990 15.08854900 62441,6917.835,95.437,540.833,538.567,0.0
53623.0,STARLINK-4573,PAYLOAD,2023-10-13 12:35:17,15.08851711,0.000188,53.2169,216.2338,79.2846,280.8358,0.00065008,0.00010076,0.0,0 STARLINK-4573,1 53623U 22104AM  23286.52450676  .00010076  00000-0  65008-3 0  9990,2 53623  53.2169 216.2338 0001880  79.2846 280.8358 15.08851711 62497,6917.845,95.437,541.01,538.409,0.0
53623.0,STARLINK-4573,PAYLOAD,2023-10-14 12:26:04,15.08842686,0.0001353,53.2172,211.774,94.8121,265.3025,0.00017081,2.432e-05,0.0,0 STARLINK-4573,1 53623U 22104AM  23287.51810354  .00002432  00000-0  17081-3 0  9998,2 53623  53.2172 211.7740 0001353  94.8121 265.3025 15.08842686 63325,6917.872,95.437,540.673,538.801,0.0
53623.0,STARLINK-4573,PAYLOAD,2023-10-14 18:47:37,15.08823389,0.0001548,53.2173,210.5854,97.19,262.9269,-0.00059523,-9.744e-05,0.0,0 STARLINK-4573,1 53623U 22104AM  23287.78306858 -.00009744  00000-0 -59523-3 0  9998,2 53623  53.2173 210.5854 0001548  97.1900 262.9269 15.08823389 62686,6917.931,95.439,540.867,538.725,0.0
53623.0,STARLINK-4573,PAYLOAD,2023-10-15 04:19:56,15.08835661,0.0001479,53.216,208.8007,103.3877,256.728,0.0022402,0.00035541,0.0,0 STARLINK-4573,1 53623U 22104AM  23288.18051379  .00035541  00000-0  22402-2 0  9995,2 53623  53.2160 208.8007 0001479 103.3877 256.7280 15.08835661 62745,6917.894,95.438,540.782,538.735,0.0
53623.0,STARLINK-4573,PAYLOAD,2023-10-15 12:16:52,15.08830677,0.0001548,53.2172,207.3115,105.7635,254.3528,0.00085166,0.00013289,0.0,0 STARLINK-4573,1 53623U 22104AM  23288.51171710  .00013289  00000-0  85166-3 0  9996,2 53623  53.2172 207.3115 0001548 105.7635 254.3528 15.08830677 62793,6917.909,95.438,540.845,538.703,0.0
53623.0,STARLINK-4573,PAYLOAD,2023-10-16 12:07:39,15.08853046,0.0001147,53.2174,202.8532,99.4754,260.6368,0.0007783,0.00012125,0.0,0 STARLINK-4573,1 53623U 22104AM  23289.50531427  .00012125  00000-0  77830-3 0  9998,2 53623  53.2174 202.8532 0001147  99.4754 260.6368 15.08853046 63624,6917.841,95.437,540.499,538.912,0.0
53623.0,STARLINK-4573,PAYLOAD,2023-10-16 18:29:11,15.08849489,0.0001393,53.2159,201.6642,100.0913,260.0236,0.00044128,6.744e-05,0.0,0 STARLINK-4573,1 53623U 22104AM  23289.77027460  .00006744  00000-0  44128-3 0  9998,2 53623  53.2159 201.6642 0001393 100.0913 260.0236 15.08849489 62987,6917.851,95.437,540.68,538.753,0.0
53623.0,STARLINK-4573,PAYLOAD,2023-10-18 00:41:30,15.08852087,0.0001304,53.2165,196.0129,92.405,267.7091,0.00031066,4.661e-05,0.0,0 STARLINK-4573,1 53623U 22104AM  23291.02882918  .00004661  00000-0  31066-3 0  9999,2 53623  53.2165 196.0129 0001304  92.4050 267.7091 15.08852087 63857,6917.843,95.437,540.611,538.806,0.0
53623.0,STARLINK-4573,PAYLOAD,2023-10-18 10:13:49,15.08848448,0.0001436,53.2167,194.2293,84.9584,275.1572,0.00049896,7.664e-05,0.0,0 STARLINK-4573,1 53623U 22104AM  23291.42626983  .00007664  00000-0  49896-3 0  9997,2 53623  53.2167 194.2293 0001436  84.9584 275.1572 15.08848448 63230,6917.855,95.437,540.713,538.726,0.0
53623.0,STARLINK-4573,PAYLOAD,2023-10-19 00:32:17,15.08853855,0.0001776,53.2169,191.5542,90.9264,269.1932,0.00073144,0.00011376,0.0,0 STARLINK-4573,1 53623U 22104AM  23292.02242932  .00011376  00000-0  73144-3 0  9990,2 53623  53.2169 191.5542 0001776  90.9264 269.1932 15.08853855 64005,6917.838,95.437,540.932,538.474,0.0
53623.0,STARLINK-4573,PAYLOAD,2023-10-19 16:26:08,15.08855026,0.0001653,53.2148,188.5827,96.4625,263.6555,0.0005927,9.161e-05,0.0,0 STARLINK-4573,1 53623U 22104AM  23292.68482636  .00009161  00000-0  59270-3 0  9992,2 53623  53.2148 188.5827 0001653  96.4625 263.6555 15.08855026 63427,6917.834,95.437,540.843,538.556,0.0
53623.0,STARLINK-4573,PAYLOAD,2023-10-20 00:23:04,15.08860919,9.22e-05,53.2149,187.0949,93.6042,266.5055,0.00062262,9.641e-05,0.0,0 STARLINK-4573,1 53623U 22104AM  23293.01602183  .00009641  00000-0  62262-3 0  9999,2 53623  53.2149 187.0949 0000922  93.6042 266.5055 15.08860919 64152,6917.816,95.436,540.319,539.044,0.0
